YAOGAN-36 04C           
1 54750U 22171E   26068.78871400  .00016196  00000+0  54592-3 0  9991
2 54750  34.9797  96.6578 0006685 275.3761  84.6192 15.29852307180246
STARLINK-31140          
1 58767U 24011C   26068.05531346  .00000797  00000+0  39028-4 0  9998
2 58767  53.1621  16.5875 0001079 106.5079 253.6041 15.30197835120174
